IRIDIUM 33 DEB          
1 34869U 97051MP  17345.25850873  .00002100  00000-0  66555-3 0  9993
2 34869  86.4544 259.7787 0068375 152.1475   2.4255 14.38312850451566
